{"type": "FeatureCollection", "features": [ {"type": "Feature", "properties": {"norad_id": 61186, "name": "BEIDOU-3 M25 (C47)", "group": "beidou", "lat": -23.064112009749216, "lon": -69.16020223221898, "alt_km": 21518.23650246468, "timestamp": "2025-12-20T14:38:02.235621+00:00", "meta": {"OBJECT_NAME": "BEIDOU-3 M25 (C47)", "OBJECT_ID": "2024-168B", "EPOCH": "2025-12-20T04:50:33.841248", "MEAN_MOTION": 1.86230266, "ECCENTRICITY": 0.00054523, "INCLINATION": 54.6355, "RA_OF_ASC_NODE": 308.462, "ARG_OF_PERICENTER": 299.4821, "MEAN_ANOMALY": 118.2458, "EPHEMERIS_TYPE": 0, "CLASSIFICATION_TYPE": "U", "NORAD_CAT_ID": 61186, "ELEMENT_SET_NO": 999, "REV_AT_EPOCH": 845, "BSTAR": 0, "MEAN_MOTION_DOT": -7.1e-07, "MEAN_MOTION_DDOT": 0}, "tle": {"line1": "1 61186U 24168B   25354.20178057 -.00000071  00000+0  00000+0 0  9999", "line2": "2 61186  54.6355 308.4620 0005452 299.4821 118.2458  1.86230266  8456"}}, "geometry": {"type": "Point", "coordinates": [-69.16020223221898, -23.064112009749216]}}, {"type": "Feature", "properties": {"norad_id": 61187, "name": "BEIDOU-3 M27 (C49)", "group": "beidou", "lat": 51.52809846763434, "lon": 65.15100771105809, "alt_km": 21526.236611397682, "timestamp": "2025-12-20T14:38:02.235633+00:00", "meta": {"OBJECT_NAME": "BEIDOU-3 M27 (C49)", "OBJECT_ID": "2024-168C", "EPOCH": "2025-12-20T01:43:20.217792", "MEAN_MOTION": 1.8623042, "ECCENTRICITY": 0.00025185, "INCLINATION": 54.631, "RA_OF_ASC_NODE": 308.4501, "ARG_OF_PERICENTER": 339.7234, "MEAN_ANOMALY": 125.7801, "EPHEMERIS_TYPE": 0, "CLASSIFICATION_TYPE": "U", "NORAD_CAT_ID": 61187, "ELEMENT_SET_NO": 999, "REV_AT_EPOCH": 592, "BSTAR": 0, "MEAN_MOTION_DOT": -7.2e-07, "MEAN_MOTION_DDOT": 0}, "tle": {"line1": "1 61187U 24168C   25354.07176178 -.00000072  00000+0  00000+0 0  9998", "line2": "2 61187  54.6310 308.4501 0002518 339.7234 125.7801  1.86230420  5928"}}, "geometry": {"type": "Point", "coordinates": [65.15100771105809, 51.52809846763434]}}]}